GLOBALSTAR M001         
1 25162U 98008A   25300.32774515 -.00000108  00000+0 -85449-4 0  9999
2 25162  52.0043 308.6160 0001373 164.3148 209.8251 12.38219371260087
GLOBALSTAR M004         
1 25163U 98008B   25300.26753106 -.00000057  00000+0  25913-3 0  9997
2 25163  52.0030  11.2031 0003051 215.0553 186.4402 12.63406694278381
GLOBALSTAR M002         
1 25164U 98008C   25300.17713889 -.00000102  00000+0 -49417-3 0  9999
2 25164  52.0011 269.2613 0001874  29.0190 331.0734 11.61512501199406
GLOBALSTAR M003         
1 25165U 98008D   25300.08728088 -.00000207  00000+0 -12575-2 0  9997
2 25165  51.9913 163.2060 0007527 192.4140 326.6117 12.12052533249217
GLOBALSTAR M014         
1 25306U 98023A   25300.22054762 -.00000055  00000+0  41723-3 0  9996
2 25306  51.9823 189.6001 0000081 137.0459  10.1948 11.65483069206564
GLOBALSTAR M006         
1 25307U 98023B   25300.18653242 -.00000032  00000+0  88672-3 0  9999
2 25307  51.9932 247.0919 0003498 354.5637 110.5076 11.58177752232121
GLOBALSTAR M015         
1 25308U 98023C   25300.29155037 -.00000092  00000+0 -43093-3 0  9996
2 25308  51.9855 351.3571 0012222 310.8905  83.8145 11.48859092209268
GLOBALSTAR M008         
1 25309U 98023D   25300.14513565 -.00000048  00000+0  37824-3 0  9990
2 25309  51.9953 175.4731 0003592  88.5937  76.5708 12.36075116254163
